[{"OBJECT_NAME":"STARLING 2","OBJECT_ID":"2023-100B","EPOCH":"2026-03-09T22:50:31.935264","MEAN_MOTION":15.06172687,"ECCENTRICITY":0.00065493,"INCLINATION":99.5117,"RA_OF_ASC_NODE":63.5956,"ARG_OF_PERICENTER":83.1191,"MEAN_ANOMALY":277.0775,"EPHEMERIS_TYPE":0,"CLASSIFICATION_TYPE":"U","NORAD_CAT_ID":57387,"ELEMENT_SET_NO":999,"REV_AT_EPOCH":14496,"BSTAR":0.00017665492,"MEAN_MOTION_DOT":2.498e-5,"MEAN_MOTION_DDOT":0},{"OBJECT_NAME":"FENGYUN 1C DEB","OBJECT_ID":"1999-025MS","EPOCH":"2026-03-09T16:57:35.155296","MEAN_MOTION":14.61416869,"ECCENTRICITY":0.02155264,"INCLINATION":98.7394,"RA_OF_ASC_NODE":123.3199,"ARG_OF_PERICENTER":267.4845,"MEAN_ANOMALY":90.1666,"EPHEMERIS_TYPE":0,"CLASSIFICATION_TYPE":"U","NORAD_CAT_ID":30017,"ELEMENT_SET_NO":999,"REV_AT_EPOCH":1714,"BSTAR":0.0001741808,"MEAN_MOTION_DOT":1.129e-5,"MEAN_MOTION_DDOT":0}]
